#aV2007  9 17  0  0   .00000000      96 DD+AD WGS84 FIT  NGA
## 1445  86400.00000000   900.00000000 54360  .0000000000000
+   31     1  2  3  4  5  6  7  8  9 10 11 12 13 14 16 17 18
+         19 20 21 22 23 24 25 26 27 28 29 30 31 32  0  0  0
+          0  0  0  0  0  0  0  0  0  0  0  0  0  0  0  0  0
+          0  0  0  0  0  0  0  0  0  0  0  0  0  0  0  0  0
+          0  0  0  0  0  0  0  0  0  0  0  0  0  0  0  0  0
++         0  0  0  0  0  0  0  0  0  0  0  0  0  0  0  0  0
++         0  0  0  0  0  0  0  0  0  0  0  0  0  0  0  0  0
++         0  0  0  0  0  0  0  0  0  0  0  0  0  0  0  0  0
++         0  0  0  0  0  0  0  0  0  0  0  0  0  0  0  0  0
++         0  0  0  0  0  0  0  0  0  0  0  0  0  0  0  0  0
%c cc cc ccc ccc cccc cccc cccc cccc ccccc ccccc ccccc ccccc
%c cc cc ccc ccc cccc cccc cccc cccc ccccc ccccc ccccc ccccc
%f  0.0000000  0.000000000  0.00000000000  0.000000000000000
%f  0.0000000  0.000000000  0.00000000000  0.000000000000000
%i    0    0    0    0      0      0      0      0         0
%i    0    0    0    0      0      0      0      0         0
/*      NGA, ST. LOUIS,MO.                                  
/*   EPHEMERIS COMPUTED FROM  3 DAYS OF DATA                
/* CCCCCCCCCCCCCCCCCCCCCCCCCCCCCCCCCCCCCCCCCCCCCCCCCCCCCCCCC
/* CCCCCCCCCCCCCCCCCCCCCCCCCCCCCCCCCCCCCCCCCCCCCCCCCCCCCCCCC
*  2007  9 17 16  0   .00000000                                                 
P  1  16881.108345 -20439.616502    722.325118    153.229279                    
V  1   1884.557619    747.891272 -32448.894320       .023863                    
P  2  -9849.154438  13562.504247  20343.495209    137.166468                    
V  2 -26034.137334  -4516.170107  -9805.889809       .027715                    
P  3   8550.089272 -23971.911645  -7168.418854    117.038759                    
V  3   8053.490907  -5530.356530  29356.751591       .053241                    
P  4 -21460.233037   7177.821423  14118.262597     -6.208870                    
V  4 -17424.150863  -4869.303586 -23532.456856      -.030056                    
P  5  16129.377009  19890.108569   7074.596099    396.469150                    
V  5   1449.280832   9734.165495 -29454.161937       .331481                    
P  6  15803.147234   4624.305527  21030.934728    245.205211                    
V  6 -14715.353007  21904.088310   6266.224925      -.021417                    
P  7  16736.671997   2613.027251  20806.987496    -99.361100                    
V  7 -13635.104804  21848.782653   8320.980280       .247370                    
P  8 -25776.983275    358.170887  -7436.624761   -123.123422                    
V  8  -8702.983556  -3327.122672  30012.409659      -.014521                    
P  9  12838.077582  14362.647338 -18980.842369     88.102994                    
V  9 -22753.892505  -1065.161047 -16557.378985       .016801                    
P 10  -1369.999003  22569.034938  13557.229084    -61.936130                    
V 10  -8409.869113 -15542.309281  25122.903633      -.969195                    
P 11 -15660.074994 -13183.811547 -17188.085008     23.776045                    
V 11  21628.147376  -3485.451624 -16837.304597       .005188                    
P 12  11682.284284  23772.837894   2499.726630    -56.457539                    
V 12  -1329.290308   3852.589914 -31533.051513      -.013132                    
P 13 -14938.311692  -3880.812057  21505.513619    207.118499                    
V 13  17256.132101 -21380.493268   8111.729886       .029421                    
P 14  20061.014868 -13370.609843 -10943.739190     41.989297                    
V 14  -7447.991550  12016.133606 -28196.644335       .023163                    
P 16   5510.627272 -19185.231222  17514.152530    176.150571                    
V 16   9692.753476  19987.893541  19082.139884       .022172                    
P 17 -20237.580711  11858.865620 -12308.357289     54.413963                    
V 17   7763.070966 -13878.234357 -26230.205286      -.012308                    
P 18  17095.427366  10022.583760 -17688.733378   -235.730787                    
V 18   6261.364406  21857.291313  17921.278705       .018050                    
P 19   2104.847700 -20290.554660 -16835.969015     65.799591                    
V 19  15761.134213 -14934.847882  19998.013811       .024774                    
P 20 -13690.750406 -22090.580143   5467.432005    -29.746908                    
V 20     -3.518139  -7692.079414 -30484.713315      -.005718                    
P 21  26031.074850   6230.370871   2638.924150     78.222201                    
V 21  -3574.116297   2443.727434  30632.721967      -.002301                    
P 22  14598.628747  -4891.534101 -21481.702176    198.036806                    
V 22   9316.948791  26088.807431    344.440741       .012740                    
P 23  -7736.545683 -13744.279251  21256.745677    202.200226                    
V 23  17173.169886 -21078.584706  -7575.640430       .038250                    
P 24  19261.613368  12886.414516  12908.518070     31.327148                    
V 24 -16394.673509   -438.721593  25575.857971       .029833                    
P 25 -23509.328435  -7737.046844   9791.961633    441.035053                    
V 25  12053.411000  -2101.867978  28477.913336       .098675                    
P 26  -4723.976339  21229.519674 -15294.687356     30.971494                    
V 26 -13202.582361  13449.025281  23974.065814       .133995                    
P 27 -26223.759446  -4134.188971   3251.257766    135.683884                    
V 27   3472.238150  -2178.505889  31371.537545       .023932                    
P 28 -15556.648567    717.272410 -21214.192137     -7.050817                    
V 28  -9549.343266 -26001.034704   5687.330474      -.006015                    
P 29  -8519.799603  22460.339520 -10681.393149      5.677569                    
V 29 -10134.782965   9806.669458  28562.607762       .001983                    
P 30  17137.345951  15757.451041  12555.815915     45.979613                    
V 30   4416.584487  16074.414048 -25434.163066       .012303                    
P 31  18669.364627  -9277.955240  16694.938667      9.226060                    
V 31  20406.993635   4313.483401 -20597.574636      -.012263                    
P 32   8070.771187 -16608.665242 -18671.410910     63.071117                    
V 32   8694.713526  23074.014844 -16228.557690       .165350                    
EOF
